ONEWEB-0159             
1 48062U 21025W   25055.93705860 -.00000211  00000+0 -61385-3 0  9996
2 48062  87.8885  55.0708 0001732  81.7929 278.3396 13.13469033190955
ONEWEB-0164             
1 48063U 21025X   25055.69107222  .00000117  00000+0  28531-3 0  9997
2 48063  87.8886  55.1311 0001996  88.8570 271.2788 13.13468661190908
ONEWEB-0167             
1 48064U 21025Y   25055.94932695 -.00000225  00000+0 -65217-3 0  9990
2 48064  87.8894  55.0977 0002452  68.4508 291.6882 13.13483831190927
ONEWEB-0166             
1 48065U 21025Z   25055.97039051  .00000235  00000+0  60984-3 0  9993
2 48065  87.8880  55.0640 0001661  86.6324 273.4995 13.13470084191008
ONEWEB-0151             
1 48066U 21025AA  25055.97197849  .00000282  00000+0  73821-3 0  9990
2 48066  87.8884  55.0833 0002016  86.9531 273.1829 13.13470084190951
ONEWEB-0170             
1 48067U 21025AB  25055.75137700  .00000411  00000+0  10891-2 0  9998
2 48067  87.8884  55.1316 0002328  95.3257 264.8137 13.13470261190871
ONEWEB-0168             
1 48068U 21025AC  25055.96562907  .00000171  00000+0  43308-3 0  9996
2 48068  87.8888  55.0659 0001854  85.2958 274.8382 13.13469490190914
ONEWEB-0173             
1 48069U 21025AD  25055.95769068 -.00000058  00000+0 -19314-3 0  9999
2 48069  87.8887  55.0766 0002118  76.8449 283.2916 13.13469432191158
